ONEWEB-0369             
1 49295U 21090S   26168.40942208  .00000140  00000+0  31784-3 0  9993
2 49295  87.9169 304.9297 0001795  98.4733 261.6603 13.19725219226443
ONEWEB-0370             
1 49296U 21090T   26168.32393257  .00000101  00000+0  21594-3 0  9994
2 49296  87.9197 274.4127 0002216 105.3556 254.7822 13.20770613229885
ONEWEB-0371             
1 49297U 21090U   26168.34149740  .00000046  00000+0  83781-4 0  9998
2 49297  87.9176 304.9355 0001876 102.4867 257.6476 13.19724298226474
ONEWEB-0372             
1 49298U 21090V   26168.31368994  .00000129  00000+0  28617-3 0  9998
2 49298  87.9195 274.4165 0001957 101.5231 258.6122 13.20771729229858
ONEWEB-0373             
1 49299U 21090W   26168.33908818  .00000060  00000+0  11548-3 0  9995
2 49299  87.9192 274.4117 0002082 100.1617 259.9751 13.20771510231040
ONEWEB-0374             
1 49300U 21090X   26168.34708529  .00000089  00000+0  20435-3 0  9992
2 49300  87.8969 289.6653 0002141  84.6612 275.4761 13.14503043227589
ONEWEB-0375             
1 49301U 21090Y   26168.32730814  .00000213  00000+0  49196-3 0  9997
2 49301  87.9194 274.4057 0002290  87.3176 272.8219 13.20772032230543
ONEWEB-0376             
1 49302U 21090Z   26168.33991700  .00000101  00000+0  22084-3 0  9995
2 49302  87.9176 304.9358 0001709 102.1150 258.0175 13.19725145226474
ONEWEB-0377             
1 49303U 21090AA  26168.31397354 -.00001597  00000+0 -39594-2 0  9994
2 49303  87.9173 274.4126 0002396  96.6194 263.5212 13.20775087230531
ONEWEB-0378             
1 49304U 21090AB  26168.33417215  .00000114  00000+0  24815-3 0  9999
2 49304  87.9191 274.4112 0001978  96.2386 263.8973 13.20770512229804
ONEWEB-0379             
1 49305U 21090AC  26168.34232458  .00000176  00000+0  44020-3 0  9993
2 49305  87.8967 289.6770 0001897  96.5760 263.5586 13.14502941227584
ONEWEB-0380             
1 49306U 21090AD  26168.33676745  .00000122  00000+0  27211-3 0  9998
2 49306  87.9173 304.9416 0002063  97.1193 263.0175 13.19725020226449
ONEWEB-0381             
1 49307U 21090AE  26168.31047082  .00000139  00000+0  30998-3 0  9997
2 49307  87.9196 274.4157 0002073  92.9799 267.1571 13.20772532229848
ONEWEB-0382             
1 49308U 21090AF  26168.29699265  .00000020  00000+0  17580-4 0  9993
2 49308  87.9193 274.4125 0001977  91.7810 268.3550 13.20770309229833
ONEWEB-0383             
1 49309U 21090AG  26168.33597241  .00000256  00000+0  65725-3 0  9994
2 49309  87.8970 289.6696 0001830  95.6201 264.5138 13.14501317227610
ONEWEB-0384             
1 49310U 21090AH  26168.36138838 -.00000018  00000+0 -75974-4 0  9998
2 49310  87.9199 274.4435 0001943  87.0074 273.1281 13.20812390229853
ONEWEB-0385             
1 49311U 21090AJ  26167.98723991 -.00000013  00000+0 -63018-4 0  9997
2 49311  87.9193 274.4797 0002000  94.5361 265.6001 13.20773160229774
ONEWEB-0386             
1 49312U 21090AK  26168.30710480  .00000142  00000+0  31815-3 0  9994
2 49312  87.9199 274.4069 0001928  93.0836 267.0518 13.20772286229836
ONEWEB-0387             
1 49313U 21090AL  26168.29195113  .00000060  00000+0  11449-3 0  9993
2 49313  87.9185 274.4320 0002315  95.5909 264.5488 13.20772764229830
ONEWEB-0388             
1 49314U 21090AM  26168.40784552  .00000121  00000+0  26923-3 0  9999
2 49314  87.9169 304.9253 0001883  94.6678 265.4669 13.19725055226443
ONEWEB-0389             
1 50469U 21132A   26168.50246256 -.00000014  00000+0 -69664-4 0  9997
2 50469  87.9130   5.8054 0002156  81.8916 278.2460 13.17648749218126
ONEWEB-0390             
1 50470U 21132B   26168.50415001  .00000004  00000+0 -23106-4 0  9994
2 50470  87.9131   5.8059 0001998  93.9194 266.2166 13.17648679218121
ONEWEB-0391             
1 50471U 21132C   26168.50583845  .00000006  00000+0 -17698-4 0  9998
2 50471  87.9132   5.8153 0002686  84.6408 275.5030 13.17648494218126
ONEWEB-0392             
1 50472U 21132D   26168.46028356 -.00000013  00000+0 -67844-4 0  9992
2 50472  87.9141   5.7927 0002210  82.9574 277.1809 13.17649120218155
ONEWEB-0393             
1 50473U 21132E   26168.51174227 -.00000004  00000+0 -43727-4 0  9992
2 50473  87.9131   5.7996 0002009  84.9644 275.1717 13.17649522218159
ONEWEB-0394             
1 50474U 21132F   26168.47750389  .00000063  00000+0  12748-3 0  9998
2 50474  87.9171 335.3839 0001833  87.7684 272.3658 13.18688414221635
ONEWEB-0395             
1 50475U 21132G   26168.09073912 -.00000357  00000+0 -10432-2 0  9992
2 50475  87.8889  21.0865 0002045  88.9723 271.1639 13.11418837215702
ONEWEB-0396             
1 50476U 21132H   26168.47074536  .00000020  00000+0  18826-4 0  9990
2 50476  87.9172 335.3980 0001914  87.7914 272.3438 13.18684916221674
ONEWEB-0397             
1 50477U 21132J   26168.48592289  .00000064  00000+0  12906-3 0  9992
2 50477  87.9171 335.3951 0001841  84.7177 275.4165 13.18685557221650
ONEWEB-0398             
1 50478U 21132K   26168.51631247  .00000206  00000+0  54634-3 0  9997
2 50478  87.8892  20.9924 0001963  94.2490 265.8862 13.11414333215651
ONEWEB-0399             
1 50479U 21132L   26168.50275909  .00000539  00000+0  14836-2 0  9994
2 50479  87.8894  21.0060 0002130  74.2449 285.8913 13.11416018215646
