OBJECT_NAME,OBJECT_ID,EPOCH,MEAN_MOTION,ECCENTRICITY,INCLINATION,RA_OF_ASC_NODE,ARG_OF_PERICENTER,MEAN_ANOMALY,EPHEMERIS_TYPE,CLASSIFICATION_TYPE,NORAD_CAT_ID,ELEMENT_SET_NO,REV_AT_EPOCH,BSTAR,MEAN_MOTION_DOT,MEAN_MOTION_DDOT
ONEWEB-0369,2021-090S,2026-06-17T09:49:34.067712,13.19725219,.0001795,87.9169,304.9297,98.4733,261.6603,0,U,49295,999,22644,.31784E-3,.14E-5,0
ONEWEB-0370,2021-090T,2026-06-17T07:46:27.774048,13.20770613,.0002216,87.9197,274.4127,105.3556,254.7822,0,U,49296,999,22988,.21594E-3,.101E-5,0
ONEWEB-0371,2021-090U,2026-06-17T08:11:45.375360,13.19724298,.0001876,87.9176,304.9355,102.4867,257.6476,0,U,49297,999,22647,.83781E-4,.46E-6,0
ONEWEB-0372,2021-090V,2026-06-17T07:31:42.810816,13.20771729,.0001957,87.9195,274.4165,101.5231,258.6122,0,U,49298,999,22985,.28617E-3,.129E-5,0
ONEWEB-0373,2021-090W,2026-06-17T08:08:17.218752,13.20771510,.0002082,87.9192,274.4117,100.1617,259.9751,0,U,49299,999,23104,.11548E-3,.6E-6,0
ONEWEB-0374,2021-090X,2026-06-17T08:19:48.169056,13.14503043,.0002141,87.8969,289.6653,84.6612,275.4761,0,U,49300,999,22758,.20435E-3,.89E-6,0
ONEWEB-0375,2021-090Y,2026-06-17T07:51:19.423296,13.20772032,.000229,87.9194,274.4057,87.3176,272.8219,0,U,49301,999,23054,.49196E-3,.213E-5,0
ONEWEB-0376,2021-090Z,2026-06-17T08:09:28.828800,13.19725145,.0001709,87.9176,304.9358,102.1150,258.0175,0,U,49302,999,22647,.22084E-3,.101E-5,0
ONEWEB-0377,2021-090AA,2026-06-17T07:32:07.313856,13.20775087,.0002396,87.9173,274.4126,96.6194,263.5212,0,U,49303,999,23053,-.39594E-2,-.1597E-4,0
ONEWEB-0378,2021-090AB,2026-06-17T08:01:12.473760,13.20770512,.0001978,87.9191,274.4112,96.2386,263.8973,0,U,49304,999,22980,.24815E-3,.114E-5,0
ONEWEB-0379,2021-090AC,2026-06-17T08:12:56.843712,13.14502941,.0001897,87.8967,289.6770,96.5760,263.5586,0,U,49305,999,22758,.4402E-3,.176E-5,0
ONEWEB-0380,2021-090AD,2026-06-17T08:04:56.707680,13.19725020,.0002063,87.9173,304.9416,97.1193,263.0175,0,U,49306,999,22644,.27211E-3,.122E-5,0
ONEWEB-0381,2021-090AE,2026-06-17T07:27:04.678848,13.20772532,.0002073,87.9196,274.4157,92.9799,267.1571,0,U,49307,999,22984,.30998E-3,.139E-5,0
ONEWEB-0382,2021-090AF,2026-06-17T07:07:40.164960,13.20770309,.0001977,87.9193,274.4125,91.7810,268.3550,0,U,49308,999,22983,.1758E-4,.2E-6,0
ONEWEB-0383,2021-090AG,2026-06-17T08:03:48.016224,13.14501317,.000183,87.8970,289.6696,95.6201,264.5138,0,U,49309,999,22761,.65725E-3,.256E-5,0
ONEWEB-0384,2021-090AH,2026-06-17T08:40:23.956032,13.20812390,.0001943,87.9199,274.4435,87.0074,273.1281,0,U,49310,999,22985,-.75974E-4,-.18E-6,0
ONEWEB-0385,2021-090AJ,2026-06-16T23:41:37.528224,13.20773160,.0002,87.9193,274.4797,94.5361,265.6001,0,U,49311,999,22977,-.63018E-4,-.13E-6,0
ONEWEB-0386,2021-090AK,2026-06-17T07:22:13.854720,13.20772286,.0001928,87.9199,274.4069,93.0836,267.0518,0,U,49312,999,22983,.31815E-3,.142E-5,0
ONEWEB-0387,2021-090AL,2026-06-17T07:00:24.577632,13.20772764,.0002315,87.9185,274.4320,95.5909,264.5488,0,U,49313,999,22983,.11449E-3,.6E-6,0
ONEWEB-0388,2021-090AM,2026-06-17T09:47:17.852928,13.19725055,.0001883,87.9169,304.9253,94.6678,265.4669,0,U,49314,999,22644,.26923E-3,.121E-5,0
ONEWEB-0389,2021-132A,2026-06-17T12:03:32.765184,13.17648749,.0002156,87.9130,5.8054,81.8916,278.2460,0,U,50469,999,21812,-.69664E-4,-.14E-6,0
ONEWEB-0390,2021-132B,2026-06-17T12:05:58.560864,13.17648679,.0001998,87.9131,5.8059,93.9194,266.2166,0,U,50470,999,21812,-.23106E-4,.4E-7,0
ONEWEB-0391,2021-132C,2026-06-17T12:08:24.442080,13.17648494,.0002686,87.9132,5.8153,84.6408,275.5030,0,U,50471,999,21812,-.17698E-4,.6E-7,0
ONEWEB-0392,2021-132D,2026-06-17T11:02:48.499584,13.17649120,.000221,87.9141,5.7927,82.9574,277.1809,0,U,50472,999,21815,-.67844E-4,-.13E-6,0
ONEWEB-0393,2021-132E,2026-06-17T12:16:54.532128,13.17649522,.0002009,87.9131,5.7996,84.9644,275.1717,0,U,50473,999,21815,-.43727E-4,-.4E-7,0
ONEWEB-0394,2021-132F,2026-06-17T11:27:36.336096,13.18688414,.0001833,87.9171,335.3839,87.7684,272.3658,0,U,50474,999,22163,.12748E-3,.63E-6,0
ONEWEB-0395,2021-132G,2026-06-17T02:10:39.859968,13.11418837,.0002045,87.8889,21.0865,88.9723,271.1639,0,U,50475,999,21570,-.10432E-2,-.357E-5,0
ONEWEB-0396,2021-132H,2026-06-17T11:17:52.399104,13.18684916,.0001914,87.9172,335.3980,87.7914,272.3438,0,U,50476,999,22167,.18826E-4,.2E-6,0
ONEWEB-0397,2021-132J,2026-06-17T11:39:43.737696,13.18685557,.0001841,87.9171,335.3951,84.7177,275.4165,0,U,50477,999,22165,.12906E-3,.64E-6,0
ONEWEB-0398,2021-132K,2026-06-17T12:23:29.397408,13.11414333,.0001963,87.8892,20.9924,94.2490,265.8862,0,U,50478,999,21565,.54634E-3,.206E-5,0
ONEWEB-0399,2021-132L,2026-06-17T12:03:58.385376,13.11416018,.000213,87.8894,21.0060,74.2449,285.8913,0,U,50479,999,21564,.14836E-2,.539E-5,0
